STARLINK-31472          
1 59730U 24090A   26068.31878452  .00000131  00000+0  14293-4 0  9996
2 59730  43.0050 185.5732 0001429 180.4350 179.6500 15.27562133103384
TEVEL2-8                
1 63239U 25052AF  26068.66815442  .00019130  00000+0  69304-3 0  9993
2 63239  97.4055 324.2923 0008031 124.9191 235.2804 15.28392908 54807
